[{"OBJECT_NAME":"STARLINK-31962","OBJECT_ID":"2024-106Q","EPOCH":"2026-03-09T03:06:48.073248","MEAN_MOTION":15.27567469,"ECCENTRICITY":0.00013547,"INCLINATION":43.0059,"RA_OF_ASC_NODE":335.9848,"ARG_OF_PERICENTER":261.0002,"MEAN_ANOMALY":99.0697,"EPHEMERIS_TYPE":0,"CLASSIFICATION_TYPE":"U","NORAD_CAT_ID":59936,"ELEMENT_SET_NO":999,"REV_AT_EPOCH":10043,"BSTAR":-3.0417763e-5,"MEAN_MOTION_DOT":-1.099e-5,"MEAN_MOTION_DDOT":0},{"OBJECT_NAME":"FLOCK 4G-27","OBJECT_ID":"2025-009AJ","EPOCH":"2026-03-09T18:05:51.175392","MEAN_MOTION":15.27199247,"ECCENTRICITY":7.564e-5,"INCLINATION":97.3976,"RA_OF_ASC_NODE":150.8631,"ARG_OF_PERICENTER":322.4974,"MEAN_ANOMALY":37.6212,"EPHEMERIS_TYPE":0,"CLASSIFICATION_TYPE":"U","NORAD_CAT_ID":62641,"ELEMENT_SET_NO":999,"REV_AT_EPOCH":6371,"BSTAR":0.00047455305,"MEAN_MOTION_DOT":0.00012587,"MEAN_MOTION_DDOT":0}]
