STARLINK-31962          
1 59936U 24106Q   26068.12972307 -.00001099  00000+0 -30418-4 0  9998
2 59936  43.0059 335.9848 0001354 261.0002  99.0697 15.27567469100439
FLOCK 4G-27             
1 62641U 25009AJ  26068.75406453  .00012587  00000+0  47455-3 0  9991
2 62641  97.3976 150.8631 0000756 322.4974  37.6212 15.27199247 63710
